{
"type": "FeatureCollection",
"crs": { "type": "name", "properties": { "name": "urn:ogc:def:crs:OGC:1.3:CRS84" } },
"features": [
{ "type": "Feature", "properties": { "amenity": "library", "name": "Hvidovre Bibliotek", "opening_hours": "May-Aug Sa 10:00-14:00; Sep-Apr Tu-Fr 10:00-18:00; Sep-Apr Mo 10:00-19:00; Sep-Apr Sa,Su 10:00-16:00; May-Aug Tu-Fr 10:00-18:00; May-Aug Mo 10:00-19:00", "phone": "+45 36392000", "ref:isil": "DK-716700", "website": "http://hvidovrebibliotekerne.dynamicweb.dk/Default.aspx?ID", "wikidata": null, "wheelchair": null, "internet_access": null, "check_date": null, "air_conditioning": null, "check_date:opening_hours": null, "alt_name": null, "email": null, "operator": null, "opening_hours:office": null, "service_times": null, "wikipedia": null, "contact:email": null, "contact:phone": null, "contact:website": null, "source": null, "internet_access:fee": null, "internet_access:ssid": null, "operator:type": null }, "geometry": { "type": "Point", "coordinates": [ 12.4775578, 55.6419224 ] } },
{ "type": "Feature", "properties": { "amenity": "library", "name": "Biblioteket Danasvej", "opening_hours": "Mo-Th 13:00-19:00; Fr 11:00-16:00; Sa 10:00-14:00", "phone": "+45 38211920", "ref:isil": "DK-714702", "website": "https://fkb.dk/adresser/biblioteket_danasvej", "wikidata": "Q21097977", "wheelchair": null, "internet_access": null, "check_date": null, "air_conditioning": null, "check_date:opening_hours": null, "alt_name": null, "email": null, "operator": null, "opening_hours:office": null, "service_times": null, "wikipedia": null, "contact:email": null, "contact:phone": null, "contact:website": null, "source": null, "internet_access:fee": null, "internet_access:ssid": null, "operator:type": null }, "geometry": { "type": "Point", "coordinates": [ 12.5507497, 55.679554 ] } },
{ "type": "Feature", "properties": { "amenity": "library", "name": "Biblioteket Godthåbsvej", "opening_hours": "Mo-We 12:00-18:00; Fr 10:00-16:00; Sa 10:00-14:00", "phone": "+45 38211940", "ref:isil": "DK-714703", "website": "https://fkb.dk/adresser/biblioteket_godthbsvej", "wikidata": "Q21097978", "wheelchair": "yes", "internet_access": null, "check_date": null, "air_conditioning": null, "check_date:opening_hours": null, "alt_name": null, "email": null, "operator": null, "opening_hours:office": null, "service_times": null, "wikipedia": null, "contact:email": null, "contact:phone": null, "contact:website": null, "source": null, "internet_access:fee": null, "internet_access:ssid": null, "operator:type": null }, "geometry": { "type": "Point", "coordinates": [ 12.5231139, 55.6886735 ] } },
{ "type": "Feature", "properties": { "amenity": "library", "name": "Brønshøj Bibliotek", "opening_hours": "Mo-Th 10:00-19:00; Fr 12:00-17:00; Sa 10:00-14:00", "phone": "+45 38280797", "ref:isil": "DK-710105", "website": "https://bibliotek.kk.dk/biblioteker/broenshoej", "wikidata": "Q12304577", "wheelchair": null, "internet_access": "wlan", "check_date": null, "air_conditioning": null, "check_date:opening_hours": null, "alt_name": null, "email": null, "operator": null, "opening_hours:office": null, "service_times": null, "wikipedia": null, "contact:email": null, "contact:phone": null, "contact:website": null, "source": null, "internet_access:fee": null, "internet_access:ssid": null, "operator:type": null }, "geometry": { "type": "Point", "coordinates": [ 12.4992001, 55.7041757 ] } },
{ "type": "Feature", "properties": { "amenity": "library", "name": "Husum Bibliotek", "opening_hours": "Mo 10:00-19:00; Tu-Th 13:00-19:00; Fr 10:00-17:00; Sa 10:00-14:00", "phone": "+45 38281476", "ref:isil": "DK-710107", "website": "https://bibliotek.kk.dk/biblioteker/husum", "wikidata": "Q21097938", "wheelchair": "yes", "internet_access": "wlan", "check_date": null, "air_conditioning": null, "check_date:opening_hours": null, "alt_name": null, "email": null, "operator": null, "opening_hours:office": null, "service_times": null, "wikipedia": null, "contact:email": null, "contact:phone": null, "contact:website": null, "source": null, "internet_access:fee": null, "internet_access:ssid": null, "operator:type": null }, "geometry": { "type": "Point", "coordinates": [ 12.4772025, 55.7108103 ] } },
{ "type": "Feature", "properties": { "amenity": "library", "name": "Vanløse Bibliotek", "opening_hours": "Mo-Th 10:00-19:00; Fr 12:00-17:00; Sa 10:00-18:00; Su 10:00-16:00", "phone": "+45 38773300", "ref:isil": "DK-710118", "website": "https://bibliotek.kk.dk/biblioteker/vanloese", "wikidata": "Q21097968", "wheelchair": "yes", "internet_access": "wlan", "check_date": null, "air_conditioning": null, "check_date:opening_hours": null, "alt_name": null, "email": null, "operator": null, "opening_hours:office": null, "service_times": null, "wikipedia": null, "contact:email": null, "contact:phone": null, "contact:website": null, "source": null, "internet_access:fee": null, "internet_access:ssid": null, "operator:type": null }, "geometry": { "type": "Point", "coordinates": [ 12.4914391, 55.6866031 ] } },
{ "type": "Feature", "properties": { "amenity": "library", "name": "Sydhavnens Bibliotek", "opening_hours": "Mo-Th 12:00-19:00; Fr 12:00-17:00; Sa 10:00-14:00", "phone": "+45 36148414", "ref:isil": "DK-710115", "website": "https://bibliotek.kk.dk/biblioteker/sydhavn", "wikidata": "Q21097965", "wheelchair": null, "internet_access": "wlan", "check_date": "2023-05-05", "air_conditioning": null, "check_date:opening_hours": null, "alt_name": null, "email": null, "operator": null, "opening_hours:office": null, "service_times": null, "wikipedia": null, "contact:email": null, "contact:phone": null, "contact:website": null, "source": null, "internet_access:fee": null, "internet_access:ssid": null, "operator:type": null }, "geometry": { "type": "Point", "coordinates": [ 12.5300363, 55.6467542 ] } },
{ "type": "Feature", "properties": { "amenity": "library", "name": "Øbro Jagtvej Bibliotek", "opening_hours": "Mo-Fr 14:00-17:00; Sa 11:00-14:00", "phone": "+45 39201876", "ref:isil": "DK-710109", "website": "https://bibliotek.kk.dk/biblioteker/oebro-jagtvej", "wikidata": "Q21097958", "wheelchair": "yes", "internet_access": "wlan", "check_date": null, "air_conditioning": "no", "check_date:opening_hours": "2023-09-21", "alt_name": null, "email": null, "operator": null, "opening_hours:office": null, "service_times": null, "wikipedia": null, "contact:email": null, "contact:phone": null, "contact:website": null, "source": null, "internet_access:fee": null, "internet_access:ssid": null, "operator:type": null }, "geometry": { "type": "Point", "coordinates": [ 12.5763743, 55.7091554 ] } },
{ "type": "Feature", "properties": { "amenity": "library", "name": "Vesterbro Bibliotek", "opening_hours": "Mo-Sa 08:00-20:00; Su 08:00-16:00", "phone": "+45 33248679", "ref:isil": "DK-710119", "website": "https://bibliotek.kk.dk/biblioteker/vesterbro", "wikidata": "Q21097969", "wheelchair": null, "internet_access": "wlan", "check_date": null, "air_conditioning": null, "check_date:opening_hours": null, "alt_name": "Vesterbro Bibliotek og Kulturhus", "email": "bibliotek@kff.kk.dk", "operator": null, "opening_hours:office": null, "service_times": null, "wikipedia": null, "contact:email": null, "contact:phone": null, "contact:website": null, "source": null, "internet_access:fee": null, "internet_access:ssid": null, "operator:type": null }, "geometry": { "type": "Point", "coordinates": [ 12.5437877, 55.6677861 ] } },
{ "type": "Feature", "properties": { "amenity": "library", "name": "Blågårdens Bibliotek", "opening_hours": "Mo-Th 10:00-19:00; Fr 13:00-17:00; Sa 10:00-14:00", "phone": null, "ref:isil": "DK-710104", "website": "https://bibliotek.kk.dk/biblioteker/blaagaardens", "wikidata": "Q21097888", "wheelchair": "yes", "internet_access": "wlan", "check_date": null, "air_conditioning": null, "check_date:opening_hours": null, "alt_name": null, "email": null, "operator": null, "opening_hours:office": null, "service_times": null, "wikipedia": null, "contact:email": null, "contact:phone": null, "contact:website": null, "source": null, "internet_access:fee": null, "internet_access:ssid": null, "operator:type": null }, "geometry": { "type": "Point", "coordinates": [ 12.5569057, 55.6859744 ] } },
{ "type": "Feature", "properties": { "amenity": "library", "name": "Islands Brygge Bibliotek", "opening_hours": "Mo 13:00-19:00; Tu 10:00-16:00; We 13:00-19:00; Th 13:00-19:00; Fr 13:00-19:00; Sa 10:00-14:00", "phone": "+45 33 66 32 20", "ref:isil": "DK-710108", "website": "https://bibliotek.kk.dk/biblioteker/islands-brygge", "wikidata": "Q21097957", "wheelchair": null, "internet_access": "wlan", "check_date": null, "air_conditioning": null, "check_date:opening_hours": null, "alt_name": null, "email": null, "operator": "Københavns Biblioteker", "opening_hours:office": null, "service_times": null, "wikipedia": null, "contact:email": null, "contact:phone": null, "contact:website": null, "source": null, "internet_access:fee": null, "internet_access:ssid": null, "operator:type": null }, "geometry": { "type": "Point", "coordinates": [ 12.5793994, 55.6664321 ] } },
{ "type": "Feature", "properties": { "amenity": "library", "name": "Sundby Bibliotek", "opening_hours": "Mo-Su 08:00-20:00", "phone": "+45 82325580", "ref:isil": "DK-710113", "website": "https://bibliotek.kk.dk/bibliotek/sundby", "wikidata": "Q21097962", "wheelchair": null, "internet_access": "wlan", "check_date": null, "air_conditioning": null, "check_date:opening_hours": null, "alt_name": null, "email": null, "operator": null, "opening_hours:office": null, "service_times": null, "wikipedia": null, "contact:email": null, "contact:phone": null, "contact:website": null, "source": null, "internet_access:fee": null, "internet_access:ssid": null, "operator:type": null }, "geometry": { "type": "Point", "coordinates": [ 12.604231, 55.6652546 ] } },
{ "type": "Feature", "properties": { "amenity": "library", "name": "Bibliotekshuset", "opening_hours": "08:00-20:00", "phone": "+45 82321600", "ref:isil": "DK-710114", "website": "https://bibliotek.kk.dk/biblioteker/bibliotekshuset", "wikidata": "Q21097963", "wheelchair": null, "internet_access": "wlan", "check_date": null, "air_conditioning": null, "check_date:opening_hours": null, "alt_name": null, "email": null, "operator": null, "opening_hours:office": "Mo-Th 14:00-17:00; Fr-Sa 10:00-14:00", "service_times": null, "wikipedia": null, "contact:email": null, "contact:phone": null, "contact:website": null, "source": null, "internet_access:fee": null, "internet_access:ssid": null, "operator:type": null }, "geometry": { "type": "Point", "coordinates": [ 12.6130753, 55.6503429 ] } },
{ "type": "Feature", "properties": { "amenity": "library", "name": "Dragør Bibliotek", "opening_hours": "Mo, We, Fr 9:00-16:00; Tu, Th 9:00-19:00; Sa 10:00-14:00", "phone": "+45 32890490", "ref:isil": "DK-715500", "website": "https://www.drabib.dk/", "wikidata": null, "wheelchair": null, "internet_access": null, "check_date": null, "air_conditioning": null, "check_date:opening_hours": null, "alt_name": null, "email": null, "operator": null, "opening_hours:office": null, "service_times": "Mo, We, Fr 11:00-16:00; Tu, Th 11:00-19:00; Sa 11:00-14:00", "wikipedia": null, "contact:email": null, "contact:phone": null, "contact:website": null, "source": null, "internet_access:fee": null, "internet_access:ssid": null, "operator:type": null }, "geometry": { "type": "Point", "coordinates": [ 12.6707608, 55.5931218 ] } },
{ "type": "Feature", "properties": { "amenity": "library", "name": "Tremilen", "opening_hours": "Mo-Th 09:00-14:00", "phone": "+45 36378430", "ref:isil": "DK-717502", "website": "https://www.rdb.dk/", "wikidata": null, "wheelchair": null, "internet_access": null, "check_date": null, "air_conditioning": null, "check_date:opening_hours": null, "alt_name": null, "email": null, "operator": null, "opening_hours:office": null, "service_times": null, "wikipedia": null, "contact:email": null, "contact:phone": null, "contact:website": null, "source": null, "internet_access:fee": null, "internet_access:ssid": null, "operator:type": null }, "geometry": { "type": "Point", "coordinates": [ 12.4508518, 55.6700945 ] } },
{ "type": "Feature", "properties": { "amenity": "library", "name": "Biblioteket i Hollænderhallen", "opening_hours": "Mo 14:00-20:00; We 14:00-20:00; Fr 14:00-17:00; Sa 11:00-14:00", "phone": "+45 32890340", "ref:isil": "DK-715501", "website": "https://www.dragoer.dk/page4190.aspx", "wikidata": "Q21098003", "wheelchair": null, "internet_access": null, "check_date": null, "air_conditioning": null, "check_date:opening_hours": null, "alt_name": null, "email": null, "operator": null, "opening_hours:office": null, "service_times": null, "wikipedia": null, "contact:email": null, "contact:phone": null, "contact:website": null, "source": null, "internet_access:fee": null, "internet_access:ssid": null, "operator:type": null }, "geometry": { "type": "Point", "coordinates": [ 12.6395606, 55.5941531 ] } },
{ "type": "Feature", "properties": { "amenity": "library", "name": "Christianshavns Bibliotek", "opening_hours": "Mo-Su 08:00-20:00", "phone": "+45 32546478", "ref:isil": "DK-710106", "website": "https://bibliotek.kk.dk/biblioteker/christianshavn", "wikidata": "Q21097936", "wheelchair": null, "internet_access": "wlan", "check_date": "2022-07-10", "air_conditioning": null, "check_date:opening_hours": null, "alt_name": null, "email": null, "operator": null, "opening_hours:office": null, "service_times": "Mo-Th 14:00-17:00; Fr-Sa 10:00-14:00", "wikipedia": null, "contact:email": null, "contact:phone": null, "contact:website": null, "source": null, "internet_access:fee": null, "internet_access:ssid": null, "operator:type": null }, "geometry": { "type": "Point", "coordinates": [ 12.5920924, 55.6722942 ] } },
{ "type": "Feature", "properties": { "amenity": "library", "name": "Rådhusbiblioteket", "opening_hours": "Mo-Fr 10:30-15:00", "phone": "+45 33662367", "ref:isil": "DK-710101", "website": "https://bibliotek.kk.dk/biblioteker/raadhusbiblioteket", "wikidata": "Q12323409", "wheelchair": null, "internet_access": "wlan", "check_date": "2023-09-22", "air_conditioning": null, "check_date:opening_hours": null, "alt_name": null, "email": null, "operator": null, "opening_hours:office": null, "service_times": null, "wikipedia": null, "contact:email": null, "contact:phone": null, "contact:website": null, "source": null, "internet_access:fee": null, "internet_access:ssid": null, "operator:type": null }, "geometry": { "type": "Point", "coordinates": [ 12.5700009, 55.6755517 ] } },
{ "type": "Feature", "properties": { "amenity": "library", "name": "Solvang Bibliotek", "opening_hours": "Mo 12:30-19:00; Tu 12:30-17:00; We-Th 12:30-19:00; Fr 10:00-16:00; Sa 10:00-14:00", "phone": "+45 32581614", "ref:isil": "DK-710112", "website": "https://bibliotek.kk.dk/biblioteker/solvang", "wikidata": "Q21097961", "wheelchair": null, "internet_access": "wlan", "check_date": null, "air_conditioning": null, "check_date:opening_hours": null, "alt_name": null, "email": null, "operator": null, "opening_hours:office": null, "service_times": null, "wikipedia": null, "contact:email": null, "contact:phone": null, "contact:website": null, "source": null, "internet_access:fee": null, "internet_access:ssid": null, "operator:type": null }, "geometry": { "type": "Point", "coordinates": [ 12.5954937, 55.6487317 ] } },
{ "type": "Feature", "properties": { "amenity": "library", "name": "Østerbro Bibliotek", "opening_hours": "08:00-12:00,17:00-22:00; Sa 08:00-11:00,14:00-22:00; Su 08:00-22:00", "phone": "+45 35381648", "ref:isil": "DK-710121", "website": "https://bibliotek.kk.dk/biblioteker/oesterbro", "wikidata": "Q21097971", "wheelchair": "yes", "internet_access": "wlan", "check_date": null, "air_conditioning": null, "check_date:opening_hours": null, "alt_name": null, "email": null, "operator": null, "opening_hours:office": null, "service_times": null, "wikipedia": null, "contact:email": null, "contact:phone": null, "contact:website": null, "source": null, "internet_access:fee": null, "internet_access:ssid": null, "operator:type": null }, "geometry": { "type": "Point", "coordinates": [ 12.5817704, 55.694588 ] } },
{ "type": "Feature", "properties": { "amenity": "library", "name": "Biblioteket Domus Vista", "opening_hours": "Mo 14:00-18:00; Tu 12:00-16:00; We 14:00-18:00; Fr 12:00-16:00; Sa 10:00-14:00", "phone": "+45 38211950", "ref:isil": "DK-714704", "website": "https://fkb.dk/adresser/biblioteket_domus_vista", "wikidata": "Q21097979", "wheelchair": "yes", "internet_access": null, "check_date": null, "air_conditioning": null, "check_date:opening_hours": null, "alt_name": null, "email": null, "operator": null, "opening_hours:office": null, "service_times": null, "wikipedia": null, "contact:email": null, "contact:phone": null, "contact:website": null, "source": null, "internet_access:fee": null, "internet_access:ssid": null, "operator:type": null }, "geometry": { "type": "Point", "coordinates": [ 12.5008535, 55.6710686 ] } },
{ "type": "Feature", "properties": { "amenity": "library", "name": "Rigsarkivet", "opening_hours": null, "phone": null, "ref:isil": null, "website": "https://www.sa.dk/content/dk/om_statens_arkiver/organisation/rigsarkivet", "wikidata": "Q2860552", "wheelchair": null, "internet_access": null, "check_date": "2024-03-19", "air_conditioning": null, "check_date:opening_hours": null, "alt_name": null, "email": null, "operator": null, "opening_hours:office": null, "service_times": null, "wikipedia": "da:Rigsarkivet", "contact:email": null, "contact:phone": null, "contact:website": null, "source": null, "internet_access:fee": null, "internet_access:ssid": null, "operator:type": null }, "geometry": { "type": "Point", "coordinates": [ 12.582234, 55.6749503 ] } },
{ "type": "Feature", "properties": { "amenity": "library", "name": "Patientbibliotek", "opening_hours": "Mo-Fr 10:00-16:00", "phone": null, "ref:isil": null, "website": null, "wikidata": null, "wheelchair": null, "internet_access": null, "check_date": null, "air_conditioning": null, "check_date:opening_hours": null, "alt_name": null, "email": null, "operator": null, "opening_hours:office": null, "service_times": null, "wikipedia": null, "contact:email": null, "contact:phone": null, "contact:website": null, "source": null, "internet_access:fee": null, "internet_access:ssid": null, "operator:type": null }, "geometry": { "type": "Point", "coordinates": [ 12.5664491, 55.6961052 ] } },
{ "type": "Feature", "properties": { "amenity": "library", "name": "Vigerslev Bibliotek", "opening_hours": "Mo-Tu 10:00-17:00;We 12:00-18:00;Th 12:00-17:00;Fr 10:00-17:00;Sa 10:00-14:00", "phone": "+45 82552200", "ref:isil": "DK-710120", "website": "https://bibliotek.kk.dk/biblioteker/vigerslev", "wikidata": "Q21097970", "wheelchair": null, "internet_access": "wlan", "check_date": null, "air_conditioning": null, "check_date:opening_hours": null, "alt_name": null, "email": null, "operator": null, "opening_hours:office": null, "service_times": null, "wikipedia": null, "contact:email": null, "contact:phone": null, "contact:website": null, "source": null, "internet_access:fee": null, "internet_access:ssid": null, "operator:type": null }, "geometry": { "type": "Point", "coordinates": [ 12.5030014, 55.6491426 ] } },
{ "type": "Feature", "properties": { "amenity": "library", "name": "Ørestad Bibliotek", "opening_hours": "Mo-Th 14:00-17:00; Fr,Sa 10:00-14:00", "phone": null, "ref:isil": "DK-710122", "website": null, "wikidata": "Q21097972", "wheelchair": null, "internet_access": null, "check_date": null, "air_conditioning": null, "check_date:opening_hours": null, "alt_name": null, "email": null, "operator": null, "opening_hours:office": null, "service_times": null, "wikipedia": null, "contact:email": "orestadbibliotek@kff.kk.dk", "contact:phone": "+45 33178440", "contact:website": "http://bibliotek.kk.dk/biblioteker/orestad", "source": null, "internet_access:fee": null, "internet_access:ssid": null, "operator:type": null }, "geometry": { "type": "Point", "coordinates": [ 12.5809518, 55.6312555 ] } },
{ "type": "Feature", "properties": { "amenity": "library", "name": "Vestamager Bibliotek", "opening_hours": "Mo-Fr 09:00-19:00; Sa 09:00-16:00", "phone": "+45 32535499", "ref:isil": "DK-718502", "website": "https://taarnbybib.dk/da/VestamagerBibliotek", "wikidata": null, "wheelchair": "yes", "internet_access": null, "check_date": null, "air_conditioning": null, "check_date:opening_hours": null, "alt_name": null, "email": null, "operator": null, "opening_hours:office": null, "service_times": null, "wikipedia": null, "contact:email": null, "contact:phone": null, "contact:website": null, "source": null, "internet_access:fee": null, "internet_access:ssid": null, "operator:type": null }, "geometry": { "type": "Point", "coordinates": [ 12.5863624, 55.6033268 ] } },
{ "type": "Feature", "properties": { "amenity": "library", "name": "Avedøre Bibliotek", "opening_hours": "Mo-Fr 10:00-18:00;Sa-Su 10:00-14:00", "phone": "+45 36343600", "ref:isil": "DK-716701", "website": null, "wikidata": "Q21098055", "wheelchair": null, "internet_access": null, "check_date": null, "air_conditioning": null, "check_date:opening_hours": null, "alt_name": null, "email": null, "operator": null, "opening_hours:office": null, "service_times": null, "wikipedia": null, "contact:email": null, "contact:phone": null, "contact:website": null, "source": "http://hvidovrebib.dk", "internet_access:fee": null, "internet_access:ssid": null, "operator:type": null }, "geometry": { "type": "Point", "coordinates": [ 12.4514732, 55.6274402 ] } },
{ "type": "Feature", "properties": { "amenity": "library", "name": "Nørrebro Bibliotek", "opening_hours": "Mo-Su 09:00-21:00", "phone": null, "ref:isil": "DK-710111", "website": "https://bibliotek.kk.dk/bibliotek/noerrebro", "wikidata": "Q21097960", "wheelchair": null, "internet_access": "wlan", "check_date": null, "air_conditioning": null, "check_date:opening_hours": null, "alt_name": null, "email": null, "operator": "Københavns Kommune", "opening_hours:office": null, "service_times": "Mo-Th 13:00-18:00; Fr-Sa 11:00-15:00", "wikipedia": null, "contact:email": null, "contact:phone": null, "contact:website": null, "source": null, "internet_access:fee": "no", "internet_access:ssid": "Publikum", "operator:type": null }, "geometry": { "type": "Point", "coordinates": [ 12.5428601, 55.6993324 ] } },
{ "type": "Feature", "properties": { "amenity": "library", "name": "KOMM Biblioteket", "opening_hours": null, "phone": null, "ref:isil": null, "website": null, "wikidata": null, "wheelchair": null, "internet_access": "yes", "check_date": null, "air_conditioning": null, "check_date:opening_hours": null, "alt_name": null, "email": null, "operator": "Det Kongelige Bibliotek", "opening_hours:office": null, "service_times": null, "wikipedia": null, "contact:email": null, "contact:phone": null, "contact:website": null, "source": null, "internet_access:fee": "no", "internet_access:ssid": null, "operator:type": "university" }, "geometry": { "type": "Point", "coordinates": [ 12.5899043, 55.6629273 ] } },
{ "type": "Feature", "properties": { "amenity": "library", "name": "NorS biblioteket", "opening_hours": null, "phone": null, "ref:isil": null, "website": "https://nors.ku.dk/bibliotek/", "wikidata": null, "wheelchair": null, "internet_access": "yes", "check_date": null, "air_conditioning": null, "check_date:opening_hours": null, "alt_name": null, "email": null, "operator": "Det Kongelige Bibliotek", "opening_hours:office": null, "service_times": null, "wikipedia": null, "contact:email": null, "contact:phone": null, "contact:website": null, "source": null, "internet_access:fee": "no", "internet_access:ssid": null, "operator:type": "university" }, "geometry": { "type": "Point", "coordinates": [ 12.5919038, 55.6628812 ] } }
]
}
